#dP2021  1 23  0  0  0.00000000      96 __u+U ITR00 FIT  IAC
## 2141 518400.00000000   900.00000000 59237 0.0000000000000
+  115   C06C07C08C09C10C11C12C13C14C16C19C20C21C22C23C24C25
+        C26C27C28C29C30C32C33C34C35C36C37C38C39C40C43C44C45
+        C46E01E02E03E04E05E07E08E09E11E12E13E14E15E18E19E21
+        E24E25E26E27E30E31E33E36G01G02G03G04G05G06G07G08G09
+        G10G11G12G13G14G15G16G17G18G19G20G21G22G23G24G25G26
+        G27G28G29G30G31G32J01J02J03R01R02R03R04R05R07R08R09
+        R11R12R13R14R15R16R17R18R19R20R21R22R24  0  0  0  0
++         8  7  7  9  8  7  5  8  9  9  9  7  7  7  6  7  7
++         7  8  7  8  7  8  7  8  7  7  7  8 10  8  7  8  9
++         8  6  6  6  6  5  6  6  6  7  5  5  7  6  5  6  8
++         5  6  6  5  5  5  6  7  5  5  5  6  6  4  6  7  5
++         6  4  7  6  5  8  5  5  6  6  5  6  5  6  5  6  5
++         6  5  5  6  5  5  9  8  7  6  8  6  7  6  5  6  6
++         7  7  8  5  8  7  7  5  7  6  5  7  6  0  0  0  0
%c M  cc GPS ccc cccc cccc cccc cccc ccccc ccccc ccccc ccccc
%c cc cc ccc ccc cccc cccc cccc cccc ccccc ccccc ccccc ccccc
%f  0.0000000  0.000000000  0.00000000000  0.000000000000000
%f  0.0000000  0.000000000  0.00000000000  0.000000000000000
%i    0    0    0    0      0      0      0      0         0
%i    0    0    0    0      0      0      0      0         0
/* INFORMATION & ANALYSIS CENTER (IAC)      ULTRA-RAPID DATA
/* S/V CLOCKS ARE ALIGNED TO GNSS TIME                      
/* G:C1WC2W R:C1PC2P E:C1XC5X C:C2IC6I J:C1CC2S             
/* PCV:IGS14_2134 OL/AL:FES2004  NONE     YN ORB:CoN CLK:CoN
*  2021 01 23 16 45  0.00000000
PC06 -22182.690895  24607.382516 -25939.586427     29.250929
PC07 -14169.717043  38571.684795  -7856.184188   -255.393996
PC08  -5248.430330  23598.041077  34728.110187   -926.964318
PC09  -5368.748277  25214.385236 -33159.202188    783.488670
PC10  -5070.428345  41476.527966   3585.367045    -98.940058
PC11   5112.792061  14852.322542  23137.996238   -906.266795
PC12 -15369.792029  13706.775052  18865.262545    748.891708
PC13   8410.837613  31751.748433  26686.765579    110.437000
PC14   -664.726382  24321.354493 -13597.322856    -31.069193
PC16 -20688.317281  24805.238302 -27137.504957   -669.569802
PC19  -6788.554486 -18376.141683  19901.033491    701.515900
PC20   6976.046125 -26243.375903   6500.312038   -910.324615
PC21 -17251.365450  18710.648976  11443.606085   -805.403942
PC22 -17001.207971    333.135663  22122.785526   -854.261020
PC23  20699.424310   9778.262755  15963.523160   -879.290513
PC24   1312.667051  22503.264479 -16483.691416   -746.678370
PC25  16639.284105  22418.373660    192.732383   -907.716498
PC26 -12745.166226  10009.063993 -22728.321470    958.802610
PC27  23330.177079  -9875.881527 -11692.808327    471.269437
PC28  27230.153093   1944.549519   5806.823889   -118.236297
PC29 -15609.842093 -11990.921327 -19784.420994    342.537525
PC30   5712.836044 -16050.343913 -22096.053020    435.140927
PC32  17109.704443 -18852.646083 -11420.691785   -885.862717
PC33   6842.266904  18401.022295 -19824.195080   -929.213491
PC34  -5040.690284  16105.337038  22226.595213   -756.518150
PC35 -27235.843270  -1196.141984  -6048.170838   -451.999601
PC36 -15917.418110 -22916.486513    135.618759   -770.472376
PC37  13561.397219  -8867.321531  22732.747167   -861.068448
PC38  -5024.203629  26134.794482  32758.365965    125.653525
PC39 -17505.909846  26302.669534 -27981.601686     27.721467
PC40 -12636.157643  40143.552090   -294.084696    124.203095
PC43  15096.027575  12371.594681  19934.962719   -565.208754
PC44 -23160.698280  10593.494577  11446.533742      1.574110
PC45 -20637.677128  -9692.335632 -16072.546581 999999.999999
PC46  -2112.938688 -22752.598675  15991.786178    438.750227
PE01 -12700.727579 -22975.295472 -13662.991456  -1030.902300
PE02  12747.271112  22920.882745  13742.801320    193.165406
PE03  12418.153795  11913.174477 -24090.178181   -390.574812
PE04 -24426.011340   5122.074999  15917.348976   -694.846057
PE05  -7069.113155  22216.416426 -18241.368290   -310.505279
PE07  22240.146943 -19455.909844   1807.805453   -491.467517
PE08  24425.752618  -5593.654775 -15767.724940   6057.715538
PE09 -22060.020000  19629.278782  -1959.155822   5789.436804
PE11 -17474.956695   8911.120995  22174.350519   6426.425770
PE12 -28133.832043  -5489.734553   7430.696935   5392.164924
PE13  17755.493217  -8651.118391 -22032.574539    410.789839
PE14   3500.543092  14579.195722  17984.222743  -1304.840563
PE15  28127.049445   5389.334776  -7461.830073    832.863350
PE18  -3337.156806 -20728.474972 -24864.594679  -1426.186759
PE19 -10260.946060 -13519.798562  24250.040821    185.704837
PE21  -1585.695857 -29249.637728   4218.022305   -644.457361
PE24 -11308.360393  18143.932818 -20497.641156   -705.097889
PE25   1471.962278  29242.693301  -4384.172729   -524.929130
PE26  -3665.173333 -17882.923091 -23287.933179   2231.722641
PE27  10867.665550 -18717.554270  20187.110690     45.043478
PE30  16913.146835   3703.738046  24001.869116   3239.484704
PE31 -16844.159562  -2722.685488 -24180.612815   -477.622576
PE33 -21951.633740 -16223.229968 -11445.333259   -465.097762
PE36   3022.833163  17581.789863  23631.481777    450.344880
PG01 -22349.400653 -14665.776013    659.147927    775.087767
PG02   6611.743322  18560.202047  18465.028297   -569.163382
PG03 -13016.976347 -11598.666239  19986.594548    -63.891242
PG04 -19087.831202  -5017.308364  17800.818291   -174.955655
PG05   3920.518258  25363.185011  -6613.501602    -31.762425
PG06  -7578.601393  12695.881615  22128.009593     -4.323465
PG07 -22495.296660  -3453.531209 -13752.297631     32.493345
PG08 -12763.401147  -9802.758292 -21174.644120     -7.659690
PG09 -24428.175353   5572.602052   8780.056195   -315.768156
PG10  11688.882984 -18024.672538 -15336.090806    -45.643530
PG11 -19876.925581 -12125.731168 -12891.418369    -44.892909
PG12  10249.895115  16175.231140  18226.031848      8.936405
PG13   1607.595947  15296.815209 -21779.098362     89.111470
PG14 -13344.520899  16110.815277 -16371.318214     89.611109
PG15  14879.176909   8755.513012 -20612.838273   -174.340624
PG16   -135.930060 -25664.962117  -6031.226170   -269.363742
PG17 -20691.677639  14702.702368   8228.962301    383.919090
PG18  20972.121728    936.257221 -16309.521964    343.236849
PG19 -15685.030510  15850.463067  14079.187319    -48.067701
PG20  15055.590926  -6030.573407 -21056.398701    525.034269
PG21 -19892.365508 -16461.660253  -6346.637972     89.349774
PG22 -11353.418459 -19340.254945  14552.814973   -692.975089
PG23  14783.963216  -7310.956587 -20835.278912    117.068941
PG24  21179.177708  15853.531449  -4340.875472      3.297865
PG25  15015.673758   1067.905196  21629.817351     65.738178
PG26   4845.569491 -25296.580436   5845.396991     34.261345
PG27    904.593422 -16295.140234 -21029.248227    -61.912862
PG28 -12251.134851  19089.937042 -13403.210553    625.707455
PG29  24610.503864  -3269.095279   9458.774546   -281.323090
PG30 -15737.686550   7051.453730 -20208.113098   -373.526002
PG31   5775.646617 -14426.731011  21417.507830    -95.673357
PG32  19304.044377 -16196.975161   8212.302319     15.747796
PJ01 -33280.269089  25189.372552  10821.125070   -337.502555
PJ02 -19986.165520  24847.444885 -23082.359357      1.022657
PJ03 -29218.879515  26348.307690  20125.053339     -0.225419
PR01  16999.565361 -14227.939922 -12632.113769     73.911435
PR02  10628.694013 -21611.192969   8349.404809    464.065717
PR03  -2101.180750 -14333.667688  21018.911647     29.670030
PR04 -13262.217488   1036.564123  21789.372576     71.167842
PR05 -17199.890943  15762.044306  10351.346873     65.253651
PR07   2456.430019  13950.259027 -21192.086560    -42.241509
PR08  13337.456103  -1006.736806 -21664.785342    -57.001300
PR09   1907.155691  20791.567017 -14594.641535     20.175700
PR11  14646.590726  11523.790553  17421.175222      4.244113
PR12   8980.861383  -6598.150456  22965.600767    199.057277
PR13  -1865.383617 -20517.874995  15016.479082    -49.703712
PR14 -11672.733247 -22579.869046  -2179.976055     60.180860
PR15 -14511.635522 -11391.684811 -17596.109148    105.761858
PR16  -8444.201825   7888.745823 -22776.901062    -10.509524
PR17 -13070.461941 -10127.368820 -19393.667783    393.791554
PR18 -24425.259485  -4975.830057  -5525.819239     64.167069
PR19 -23106.510897   1865.830692  10648.616318   -129.099275
PR20  -6784.162002   9338.850979  22767.050289   -431.771854
PR21  14161.891935   9918.133048  18772.088085   -182.471875
PR22  24641.458806   4612.745508   4419.526615    -94.045379
PR24   5912.736532 -10030.892897 -22672.494759     28.859055
EOF
